[{"OBJECT_NAME":"METOP-C","OBJECT_ID":"2018-087A","EPOCH":"2026-03-04T14:42:10.838880","MEAN_MOTION":14.21495144,"ECCENTRICITY":0.00021825,"INCLINATION":98.6776,"RA_OF_ASC_NODE":125.0716,"ARG_OF_PERICENTER":106.9684,"MEAN_ANOMALY":253.1733,"EPHEMERIS_TYPE":0,"CLASSIFICATION_TYPE":"U","NORAD_CAT_ID":43689,"ELEMENT_SET_NO":999,"REV_AT_EPOCH":37997,"BSTAR":0.0001012753,"MEAN_MOTION_DOT":1.78e-6,"MEAN_MOTION_DDOT":0},{"OBJECT_NAME":"GEO-KOMPSAT-2A","OBJECT_ID":"2018-100A","EPOCH":"2026-03-04T06:21:38.470176","MEAN_MOTION":1.00267019,"ECCENTRICITY":0.00017508,"INCLINATION":0.0084,"RA_OF_ASC_NODE":82.1864,"ARG_OF_PERICENTER":326.5345,"MEAN_ANOMALY":336.9688,"EPHEMERIS_TYPE":0,"CLASSIFICATION_TYPE":"U","NORAD_CAT_ID":43823,"ELEMENT_SET_NO":999,"REV_AT_EPOCH":2657,"BSTAR":0,"MEAN_MOTION_DOT":0,"MEAN_MOTION_DDOT":0},{"OBJECT_NAME":"METEOR-M2 2","OBJECT_ID":"2019-038A","EPOCH":"2026-03-04T13:50:29.298336","MEAN_MOTION":14.2433201,"ECCENTRICITY":0.00011551,"INCLINATION":98.9074,"RA_OF_ASC_NODE":49.3574,"ARG_OF_PERICENTER":13.0798,"MEAN_ANOMALY":347.041,"EPHEMERIS_TYPE":0,"CLASSIFICATION_TYPE":"U","NORAD_CAT_ID":44387,"ELEMENT_SET_NO":999,"REV_AT_EPOCH":34640,"BSTAR":0.00016577545,"MEAN_MOTION_DOT":3.37e-6,"MEAN_MOTION_DDOT":0},{"OBJECT_NAME":"ARKTIKA-M 1","OBJECT_ID":"2021-016A","EPOCH":"2026-03-02T19:44:56.440608","MEAN_MOTION":2.00620868,"ECCENTRICITY":0.72428147,"INCLINATION":63.2036,"RA_OF_ASC_NODE":72.8571,"ARG_OF_PERICENTER":269.4536,"MEAN_ANOMALY":15.2019,"EPHEMERIS_TYPE":0,"CLASSIFICATION_TYPE":"U","NORAD_CAT_ID":47719,"ELEMENT_SET_NO":999,"REV_AT_EPOCH":3665,"BSTAR":0,"MEAN_MOTION_DOT":-1.08e-6,"MEAN_MOTION_DDOT":0},{"OBJECT_NAME":"FENGYUN 3E","OBJECT_ID":"2021-062A","EPOCH":"2026-03-04T15:04:53.481792","MEAN_MOTION":14.19893822,"ECCENTRICITY":0.00024114,"INCLINATION":98.7505,"RA_OF_ASC_NODE":68.1982,"ARG_OF_PERICENTER":51.793,"MEAN_ANOMALY":308.3463,"EPHEMERIS_TYPE":0,"CLASSIFICATION_TYPE":"U","NORAD_CAT_ID":49008,"ELEMENT_SET_NO":999,"REV_AT_EPOCH":24174,"BSTAR":0.00014572486,"MEAN_MOTION_DOT":2.65e-6,"MEAN_MOTION_DDOT":0},{"OBJECT_NAME":"GOES 18","OBJECT_ID":"2022-021A","EPOCH":"2026-03-04T11:59:38.898528","MEAN_MOTION":1.00272095,"ECCENTRICITY":6.571e-5,"INCLINATION":0.0304,"RA_OF_ASC_NODE":75.7612,"ARG_OF_PERICENTER":323.5131,"MEAN_ANOMALY":165.8689,"EPHEMERIS_TYPE":0,"CLASSIFICATION_TYPE":"U","NORAD_CAT_ID":51850,"ELEMENT_SET_NO":999,"REV_AT_EPOCH":554,"BSTAR":0,"MEAN_MOTION_DOT":8.5e-7,"MEAN_MOTION_DDOT":0},{"OBJECT_NAME":"NOAA 21 (JPSS-2)","OBJECT_ID":"2022-150A","EPOCH":"2026-03-04T13:50:32.755200","MEAN_MOTION":14.19550502,"ECCENTRICITY":0.00025441,"INCLINATION":98.755,"RA_OF_ASC_NODE":3.9014,"ARG_OF_PERICENTER":115.625,"MEAN_ANOMALY":244.5189,"EPHEMERIS_TYPE":0,"CLASSIFICATION_TYPE":"U","NORAD_CAT_ID":54234,"ELEMENT_SET_NO":999,"REV_AT_EPOCH":17170,"BSTAR":7.5549642e-5,"MEAN_MOTION_DOT":1.15e-6,"MEAN_MOTION_DDOT":0},{"OBJECT_NAME":"METEOSAT-12 (MTG-I1)","OBJECT_ID":"2022-170C","EPOCH":"2026-03-04T09:10:38.507232","MEAN_MOTION":1.00269482,"ECCENTRICITY":0.00021498,"INCLINATION":0.7009,"RA_OF_ASC_NODE":21.3486,"ARG_OF_PERICENTER":285.0111,"MEAN_ANOMALY":353.1353,"EPHEMERIS_TYPE":0,"CLASSIFICATION_TYPE":"U","NORAD_CAT_ID":54743,"ELEMENT_SET_NO":999,"REV_AT_EPOCH":1192,"BSTAR":0,"MEAN_MOTION_DOT":-1.9e-7,"MEAN_MOTION_DDOT":0},{"OBJECT_NAME":"TIANMU-1 03","OBJECT_ID":"2023-039A","EPOCH":"2026-03-04T15:07:26.015808","MEAN_MOTION":15.43973312,"ECCENTRICITY":0.00039755,"INCLINATION":97.5168,"RA_OF_ASC_NODE":233.7788,"ARG_OF_PERICENTER":115.7871,"MEAN_ANOMALY":244.3787,"EPHEMERIS_TYPE":0,"CLASSIFICATION_TYPE":"U","NORAD_CAT_ID":55973,"ELEMENT_SET_NO":999,"REV_AT_EPOCH":16468,"BSTAR":0.00052699116,"MEAN_MOTION_DOT":0.00023955,"MEAN_MOTION_DDOT":0},{"OBJECT_NAME":"TIANMU-1 04","OBJECT_ID":"2023-039B","EPOCH":"2026-03-04T15:43:08.527584","MEAN_MOTION":15.44381361,"ECCENTRICITY":0.00046332,"INCLINATION":97.5101,"RA_OF_ASC_NODE":232.9658,"ARG_OF_PERICENTER":112.1005,"MEAN_ANOMALY":248.0735,"EPHEMERIS_TYPE":0,"CLASSIFICATION_TYPE":"U","NORAD_CAT_ID":55974,"ELEMENT_SET_NO":999,"REV_AT_EPOCH":16469,"BSTAR":0.00050499236,"MEAN_MOTION_DOT":0.00023271,"MEAN_MOTION_DDOT":0},{"OBJECT_NAME":"TIANMU-1 05","OBJECT_ID":"2023-039C","EPOCH":"2026-03-04T14:33:26.270784","MEAN_MOTION":15.43913728,"ECCENTRICITY":0.00037646,"INCLINATION":97.5146,"RA_OF_ASC_NODE":233.4075,"ARG_OF_PERICENTER":133.3427,"MEAN_ANOMALY":226.8135,"EPHEMERIS_TYPE":0,"CLASSIFICATION_TYPE":"U","NORAD_CAT_ID":55975,"ELEMENT_SET_NO":999,"REV_AT_EPOCH":16466,"BSTAR":0.00051403009,"MEAN_MOTION_DOT":0.00023314,"MEAN_MOTION_DDOT":0},{"OBJECT_NAME":"TIANMU-1 06","OBJECT_ID":"2023-039D","EPOCH":"2026-03-04T15:42:59.890176","MEAN_MOTION":15.44410829,"ECCENTRICITY":0.00040433,"INCLINATION":97.5158,"RA_OF_ASC_NODE":233.9931,"ARG_OF_PERICENTER":128.7535,"MEAN_ANOMALY":231.4074,"EPHEMERIS_TYPE":0,"CLASSIFICATION_TYPE":"U","NORAD_CAT_ID":55976,"ELEMENT_SET_NO":999,"REV_AT_EPOCH":16469,"BSTAR":0.00050169049,"MEAN_MOTION_DOT":0.00023138,"MEAN_MOTION_DDOT":0},{"OBJECT_NAME":"FENGYUN 3G","OBJECT_ID":"2023-055A","EPOCH":"2026-03-04T14:51:59.537376","MEAN_MOTION":15.54245537,"ECCENTRICITY":0.00107238,"INCLINATION":49.9933,"RA_OF_ASC_NODE":165.1802,"ARG_OF_PERICENTER":350.4524,"MEAN_ANOMALY":9.6238,"EPHEMERIS_TYPE":0,"CLASSIFICATION_TYPE":"U","NORAD_CAT_ID":56232,"ELEMENT_SET_NO":999,"REV_AT_EPOCH":16375,"BSTAR":0.00067499459,"MEAN_MOTION_DOT":0.00044817,"MEAN_MOTION_DDOT":0},{"OBJECT_NAME":"METEOR-M2 3","OBJECT_ID":"2023-091A","EPOCH":"2026-03-04T14:50:08.203200","MEAN_MOTION":14.24036989,"ECCENTRICITY":0.00050408,"INCLINATION":98.6225,"RA_OF_ASC_NODE":120.6735,"ARG_OF_PERICENTER":110.7757,"MEAN_ANOMALY":249.3963,"EPHEMERIS_TYPE":0,"CLASSIFICATION_TYPE":"U","NORAD_CAT_ID":57166,"ELEMENT_SET_NO":999,"REV_AT_EPOCH":13963,"BSTAR":2.1092374e-5,"MEAN_MOTION_DOT":5.0e-8,"MEAN_MOTION_DDOT":0},{"OBJECT_NAME":"TIANMU-1 07","OBJECT_ID":"2023-101A","EPOCH":"2026-03-04T14:40:19.570368","MEAN_MOTION":15.29086596,"ECCENTRICITY":0.00044958,"INCLINATION":97.2733,"RA_OF_ASC_NODE":116.6733,"ARG_OF_PERICENTER":147.8564,"MEAN_ANOMALY":212.2951,"EPHEMERIS_TYPE":0,"CLASSIFICATION_TYPE":"U","NORAD_CAT_ID":57399,"ELEMENT_SET_NO":999,"REV_AT_EPOCH":14566,"BSTAR":0.0003932196,"MEAN_MOTION_DOT":0.00011038,"MEAN_MOTION_DDOT":0},{"OBJECT_NAME":"TIANMU-1 08","OBJECT_ID":"2023-101B","EPOCH":"2026-03-04T06:05:55.676832","MEAN_MOTION":15.2924016,"ECCENTRICITY":0.00065524,"INCLINATION":97.2723,"RA_OF_ASC_NODE":116.1026,"ARG_OF_PERICENTER":141.1444,"MEAN_ANOMALY":219.0268,"EPHEMERIS_TYPE":0,"CLASSIFICATION_TYPE":"U","NORAD_CAT_ID":57400,"ELEMENT_SET_NO":999,"REV_AT_EPOCH":14560,"BSTAR":2.1426003e-5,"MEAN_MOTION_DOT":5.35e-6,"MEAN_MOTION_DDOT":0},{"OBJECT_NAME":"TIANMU-1 09","OBJECT_ID":"2023-101C","EPOCH":"2026-03-04T15:04:24.770208","MEAN_MOTION":15.29231481,"ECCENTRICITY":0.00053435,"INCLINATION":97.2685,"RA_OF_ASC_NODE":115.9472,"ARG_OF_PERICENTER":146.4188,"MEAN_ANOMALY":213.7392,"EPHEMERIS_TYPE":0,"CLASSIFICATION_TYPE":"U","NORAD_CAT_ID":57401,"ELEMENT_SET_NO":999,"REV_AT_EPOCH":14566,"BSTAR":3.0958402e-5,"MEAN_MOTION_DOT":8.06e-6,"MEAN_MOTION_DDOT":0}]
