METOP-C                 
1 43689U 18087A   26063.61262545  .00000178  00000+0  10128-3 0  9992
2 43689  98.6776 125.0716 0002182 106.9684 253.1733 14.21495144379978
GEO-KOMPSAT-2A          
1 43823U 18100A   26063.26502859  .00000000  00000+0  00000+0 0  9992
2 43823   0.0084  82.1864 0001750 326.5345 336.9688  1.00267019 26573
METEOR-M2 2             
1 44387U 19038A   26063.57672799  .00000337  00000+0  16578-3 0  9998
2 44387  98.9074  49.3574 0001155  13.0798 347.0410 14.24332010346403
ARKTIKA-M 1             
1 47719U 21016A   26061.82287547 -.00000108  00000+0  00000+0 0  9994
2 47719  63.2036  72.8571 7242814 269.4536  15.2019  2.00620868 36653
FENGYUN 3E              
1 49008U 21062A   26063.62839678  .00000265  00000+0  14572-3 0  9992
2 49008  98.7505  68.1982 0002411  51.7930 308.3463 14.19893822241746
GOES 18                 
1 51850U 22021A   26063.49975577  .00000085  00000+0  00000+0 0  9997
2 51850   0.0304  75.7612 0000657 323.5131 165.8689  1.00272095  5545
NOAA 21 (JPSS-2)        
1 54234U 22150A   26063.57676800  .00000115  00000+0  75550-4 0  9996
2 54234  98.7550   3.9014 0002544 115.6250 244.5189 14.19550502171707
METEOSAT-12 (MTG-I1)    
1 54743U 22170C   26063.38239013 -.00000019  00000+0  00000+0 0  9990
2 54743   0.7009  21.3486 0002149 285.0111 353.1353  1.00269482 11927
TIANMU-1 03             
1 55973U 23039A   26063.63016222  .00023955  00000+0  52699-3 0  9992
2 55973  97.5168 233.7788 0003975 115.7871 244.3787 15.43973312164687
TIANMU-1 04             
1 55974U 23039B   26063.65495981  .00023271  00000+0  50499-3 0  9995
2 55974  97.5101 232.9658 0004633 112.1005 248.0735 15.44381361164697
TIANMU-1 05             
1 55975U 23039C   26063.60655406  .00023314  00000+0  51403-3 0  9995
2 55975  97.5146 233.4075 0003764 133.3427 226.8135 15.43913728164665
TIANMU-1 06             
1 55976U 23039D   26063.65485984  .00023138  00000+0  50169-3 0  9995
2 55976  97.5158 233.9931 0004043 128.7535 231.4074 15.44410829164696
FENGYUN 3G              
1 56232U 23055A   26063.61943909  .00044817  00000+0  67499-3 0  9992
2 56232  49.9933 165.1802 0010723 350.4524   9.6238 15.54245537163757
METEOR-M2 3             
1 57166U 23091A   26063.61815050  .00000005  00000+0  21092-4 0  9995
2 57166  98.6225 120.6735 0005040 110.7757 249.3963 14.24036989139634
TIANMU-1 07             
1 57399U 23101A   26063.61133762  .00011038  00000+0  39322-3 0  9990
2 57399  97.2733 116.6733 0004495 147.8564 212.2951 15.29086596145665
TIANMU-1 08             
1 57400U 23101B   26063.25411663  .00000535  00000+0  21426-4 0  9999
2 57400  97.2723 116.1026 0006552 141.1444 219.0268 15.29240160145606
TIANMU-1 09             
1 57401U 23101C   26063.62806447  .00000806  00000+0  30958-4 0  9990
2 57401  97.2685 115.9472 0005343 146.4188 213.7392 15.29231481145667
